[{"OBJECT_NAME":"COSMOS 2251 DEB","OBJECT_ID":"1993-036AFV","EPOCH":"2026-04-23T02:49:23.768544","MEAN_MOTION":14.47045141,"ECCENTRICITY":0.00903075,"INCLINATION":73.8811,"RA_OF_ASC_NODE":63.5494,"ARG_OF_PERICENTER":11.1496,"MEAN_ANOMALY":349.1633,"EPHEMERIS_TYPE":0,"CLASSIFICATION_TYPE":"U","NORAD_CAT_ID":34997,"ELEMENT_SET_NO":999,"REV_AT_EPOCH":72646,"BSTAR":0.0010523177,"MEAN_MOTION_DOT":4.004e-5,"MEAN_MOTION_DDOT":0},{"OBJECT_NAME":"COSMOS 2251 DEB","OBJECT_ID":"1993-036AFW","EPOCH":"2026-04-26T21:04:01.012800","MEAN_MOTION":14.49889676,"ECCENTRICITY":0.00204628,"INCLINATION":74.0091,"RA_OF_ASC_NODE":265.9762,"ARG_OF_PERICENTER":19.3523,"MEAN_ANOMALY":136.5202,"EPHEMERIS_TYPE":0,"CLASSIFICATION_TYPE":"U","NORAD_CAT_ID":34998,"ELEMENT_SET_NO":999,"REV_AT_EPOCH":89378,"BSTAR":0.0004383407,"MEAN_MOTION_DOT":1.671e-5,"MEAN_MOTION_DDOT":0},{"OBJECT_NAME":"COSMOS 2251 DEB","OBJECT_ID":"1993-036AFZ","EPOCH":"2026-04-26T06:09:13.741920","MEAN_MOTION":14.45697566,"ECCENTRICITY":0.0081082,"INCLINATION":74.0207,"RA_OF_ASC_NODE":220.6395,"ARG_OF_PERICENTER":327.1504,"MEAN_ANOMALY":32.4627,"EPHEMERIS_TYPE":0,"CLASSIFICATION_TYPE":"U","NORAD_CAT_ID":35012,"ELEMENT_SET_NO":999,"REV_AT_EPOCH":89505,"BSTAR":9.5046847e-5,"MEAN_MOTION_DOT":3.21e-6,"MEAN_MOTION_DDOT":0},{"OBJECT_NAME":"COSMOS 2251 DEB","OBJECT_ID":"1993-036AGB","EPOCH":"2026-04-27T07:41:03.169248","MEAN_MOTION":14.78325791,"ECCENTRICITY":0.0011698,"INCLINATION":73.9954,"RA_OF_ASC_NODE":137.1676,"ARG_OF_PERICENTER":260.6973,"MEAN_ANOMALY":99.2879,"EPHEMERIS_TYPE":0,"CLASSIFICATION_TYPE":"U","NORAD_CAT_ID":35014,"ELEMENT_SET_NO":999,"REV_AT_EPOCH":73338,"BSTAR":0.0013451618,"MEAN_MOTION_DOT":9.773e-5,"MEAN_MOTION_DDOT":0},{"OBJECT_NAME":"COSMOS 2251 DEB","OBJECT_ID":"1993-036AGC","EPOCH":"2026-04-26T09:12:41.401728","MEAN_MOTION":14.47723243,"ECCENTRICITY":0.00755004,"INCLINATION":73.9479,"RA_OF_ASC_NODE":341.5903,"ARG_OF_PERICENTER":179.0753,"MEAN_ANOMALY":359.7274,"EPHEMERIS_TYPE":0,"CLASSIFICATION_TYPE":"U","NORAD_CAT_ID":35015,"ELEMENT_SET_NO":999,"REV_AT_EPOCH":67388,"BSTAR":0.00061102485,"MEAN_MOTION_DOT":2.31e-5,"MEAN_MOTION_DDOT":0},{"OBJECT_NAME":"COSMOS 2251 DEB","OBJECT_ID":"1993-036AGD","EPOCH":"2026-04-26T06:06:15.739776","MEAN_MOTION":14.35377795,"ECCENTRICITY":0.01136534,"INCLINATION":73.9312,"RA_OF_ASC_NODE":46.1351,"ARG_OF_PERICENTER":292.9173,"MEAN_ANOMALY":219.6723,"EPHEMERIS_TYPE":0,"CLASSIFICATION_TYPE":"U","NORAD_CAT_ID":35016,"ELEMENT_SET_NO":999,"REV_AT_EPOCH":88712,"BSTAR":0.00030832957,"MEAN_MOTION_DOT":9.23e-6,"MEAN_MOTION_DDOT":0},{"OBJECT_NAME":"COSMOS 2251 DEB","OBJECT_ID":"1993-036AGF","EPOCH":"2026-04-26T01:46:51.346560","MEAN_MOTION":13.67544784,"ECCENTRICITY":0.03470673,"INCLINATION":73.9765,"RA_OF_ASC_NODE":248.6523,"ARG_OF_PERICENTER":130.5563,"MEAN_ANOMALY":232.6327,"EPHEMERIS_TYPE":0,"CLASSIFICATION_TYPE":"U","NORAD_CAT_ID":35018,"ELEMENT_SET_NO":999,"REV_AT_EPOCH":85022,"BSTAR":0.0012712559,"MEAN_MOTION_DOT":1.609e-5,"MEAN_MOTION_DDOT":0},{"OBJECT_NAME":"COSMOS 2251 DEB","OBJECT_ID":"1993-036AGH","EPOCH":"2026-04-25T12:11:58.371936","MEAN_MOTION":14.63035265,"ECCENTRICITY":0.00894036,"INCLINATION":74.0463,"RA_OF_ASC_NODE":302.6323,"ARG_OF_PERICENTER":22.3314,"MEAN_ANOMALY":338.1707,"EPHEMERIS_TYPE":0,"CLASSIFICATION_TYPE":"U","NORAD_CAT_ID":35020,"ELEMENT_SET_NO":999,"REV_AT_EPOCH":90194,"BSTAR":0.00010784343,"MEAN_MOTION_DOT":5.53e-6,"MEAN_MOTION_DDOT":0},{"OBJECT_NAME":"COSMOS 2251 DEB","OBJECT_ID":"1993-036AGK","EPOCH":"2026-04-26T03:21:21.630816","MEAN_MOTION":14.61422876,"ECCENTRICITY":0.00486226,"INCLINATION":74.0244,"RA_OF_ASC_NODE":64.8145,"ARG_OF_PERICENTER":229.2286,"MEAN_ANOMALY":130.4657,"EPHEMERIS_TYPE":0,"CLASSIFICATION_TYPE":"U","NORAD_CAT_ID":35022,"ELEMENT_SET_NO":999,"REV_AT_EPOCH":61106,"BSTAR":0.00034622726,"MEAN_MOTION_DOT":1.712e-5,"MEAN_MOTION_DDOT":0},{"OBJECT_NAME":"COSMOS 2251 DEB","OBJECT_ID":"1993-036AGL","EPOCH":"2026-04-26T19:08:57.900768","MEAN_MOTION":15.00951604,"ECCENTRICITY":0.00275684,"INCLINATION":74.0352,"RA_OF_ASC_NODE":298.8853,"ARG_OF_PERICENTER":346.3666,"MEAN_ANOMALY":27.7168,"EPHEMERIS_TYPE":0,"CLASSIFICATION_TYPE":"U","NORAD_CAT_ID":35023,"ELEMENT_SET_NO":999,"REV_AT_EPOCH":90302,"BSTAR":0.001678113,"MEAN_MOTION_DOT":0.00021598,"MEAN_MOTION_DDOT":0},{"OBJECT_NAME":"COSMOS 2251 DEB","OBJECT_ID":"1993-036AGN","EPOCH":"2026-04-27T02:27:45.568800","MEAN_MOTION":14.73548332,"ECCENTRICITY":0.00817764,"INCLINATION":73.9351,"RA_OF_ASC_NODE":157.5415,"ARG_OF_PERICENTER":38.7749,"MEAN_ANOMALY":321.9252,"EPHEMERIS_TYPE":0,"CLASSIFICATION_TYPE":"U","NORAD_CAT_ID":35025,"ELEMENT_SET_NO":999,"REV_AT_EPOCH":90636,"BSTAR":0.00027761412,"MEAN_MOTION_DOT":1.869e-5,"MEAN_MOTION_DDOT":0},{"OBJECT_NAME":"COSMOS 2251 DEB","OBJECT_ID":"1993-036AGP","EPOCH":"2026-04-26T15:15:03.341376","MEAN_MOTION":14.53712094,"ECCENTRICITY":0.00828638,"INCLINATION":74.0469,"RA_OF_ASC_NODE":64.1277,"ARG_OF_PERICENTER":144.3717,"MEAN_ANOMALY":32.0894,"EPHEMERIS_TYPE":0,"CLASSIFICATION_TYPE":"U","NORAD_CAT_ID":35026,"ELEMENT_SET_NO":999,"REV_AT_EPOCH":90103,"BSTAR":5.4621889e-5,"MEAN_MOTION_DOT":2.09e-6,"MEAN_MOTION_DDOT":0},{"OBJECT_NAME":"COSMOS 2251 DEB","OBJECT_ID":"1993-036AGR","EPOCH":"2026-04-27T03:48:26.163360","MEAN_MOTION":14.56695397,"ECCENTRICITY":0.00822863,"INCLINATION":74.0401,"RA_OF_ASC_NODE":13.9692,"ARG_OF_PERICENTER":114.4793,"MEAN_ANOMALY":36.0346,"EPHEMERIS_TYPE":0,"CLASSIFICATION_TYPE":"U","NORAD_CAT_ID":35028,"ELEMENT_SET_NO":999,"REV_AT_EPOCH":90257,"BSTAR":8.185467e-5,"MEAN_MOTION_DOT":3.52e-6,"MEAN_MOTION_DDOT":0},{"OBJECT_NAME":"COSMOS 2251 DEB","OBJECT_ID":"1993-036AGU","EPOCH":"2026-04-23T00:33:12.963744","MEAN_MOTION":14.38444775,"ECCENTRICITY":0.00178714,"INCLINATION":74.0404,"RA_OF_ASC_NODE":17.36,"ARG_OF_PERICENTER":83.3165,"MEAN_ANOMALY":277.0023,"EPHEMERIS_TYPE":0,"CLASSIFICATION_TYPE":"U","NORAD_CAT_ID":35031,"ELEMENT_SET_NO":999,"REV_AT_EPOCH":67171,"BSTAR":0.0001033797,"MEAN_MOTION_DOT":2.9e-6,"MEAN_MOTION_DDOT":0},{"OBJECT_NAME":"COSMOS 2251 DEB","OBJECT_ID":"1993-036AGV","EPOCH":"2026-04-26T18:00:49.166784","MEAN_MOTION":14.5983731,"ECCENTRICITY":0.0068252,"INCLINATION":73.8484,"RA_OF_ASC_NODE":106.9936,"ARG_OF_PERICENTER":287.551,"MEAN_ANOMALY":250.0266,"EPHEMERIS_TYPE":0,"CLASSIFICATION_TYPE":"U","NORAD_CAT_ID":35032,"ELEMENT_SET_NO":999,"REV_AT_EPOCH":89643,"BSTAR":0.00082669149,"MEAN_MOTION_DOT":4.053e-5,"MEAN_MOTION_DDOT":0},{"OBJECT_NAME":"COSMOS 2251 DEB","OBJECT_ID":"1993-036AGW","EPOCH":"2026-04-27T04:16:27.100416","MEAN_MOTION":14.51704302,"ECCENTRICITY":0.00136241,"INCLINATION":74.0246,"RA_OF_ASC_NODE":281.5429,"ARG_OF_PERICENTER":357.2766,"MEAN_ANOMALY":2.8319,"EPHEMERIS_TYPE":0,"CLASSIFICATION_TYPE":"U","NORAD_CAT_ID":35033,"ELEMENT_SET_NO":999,"REV_AT_EPOCH":67892,"BSTAR":0.00056810907,"MEAN_MOTION_DOT":2.256e-5,"MEAN_MOTION_DDOT":0}]
