COSMOS 2251 DEB         
1 34997U 93036AFV 26113.11763621  .00004004  00000+0  10523-2 0  9993
2 34997  73.8811  63.5494 0090307  11.1496 349.1633 14.47045141726469
COSMOS 2251 DEB         
1 34998U 93036AFW 26116.87778950  .00001671  00000+0  43834-3 0  9990
2 34998  74.0091 265.9762 0020462  19.3523 136.5202 14.49889676893786
COSMOS 2251 DEB         
1 35012U 93036AFZ 26116.25640905  .00000321  00000+0  95047-4 0  9993
2 35012  74.0207 220.6395 0081082 327.1504  32.4627 14.45697566895055
COSMOS 2251 DEB         
1 35014U 93036AGB 26117.32017557  .00009773  00000+0  13452-2 0  9993
2 35014  73.9954 137.1676 0011698 260.6973  99.2879 14.78325791733386
COSMOS 2251 DEB         
1 35015U 93036AGC 26116.38381252  .00002310  00000+0  61102-3 0  9991
2 35015  73.9479 341.5903 0075500 179.0753 359.7274 14.47723243673885
COSMOS 2251 DEB         
1 35016U 93036AGD 26116.25434884  .00000923  00000+0  30833-3 0  9993
2 35016  73.9312  46.1351 0113653 292.9173 219.6723 14.35377795887121
COSMOS 2251 DEB         
1 35018U 93036AGF 26116.07420540  .00001609  00000+0  12713-2 0  9997
2 35018  73.9765 248.6523 0347067 130.5563 232.6327 13.67544784850227
COSMOS 2251 DEB         
1 35020U 93036AGH 26115.50831449  .00000553  00000+0  10784-3 0  9995
2 35020  74.0463 302.6323 0089403  22.3314 338.1707 14.63035265901941
COSMOS 2251 DEB         
1 35022U 93036AGK 26116.13983369  .00001712  00000+0  34623-3 0  9992
2 35022  74.0244  64.8145 0048622 229.2286 130.4657 14.61422876611067
COSMOS 2251 DEB         
1 35023U 93036AGL 26116.79789237  .00021598  00000+0  16781-2 0  9991
2 35023  74.0352 298.8853 0027568 346.3666  27.7168 15.00951604903027
COSMOS 2251 DEB         
1 35025U 93036AGN 26117.10261075  .00001869  00000+0  27761-3 0  9994
2 35025  73.9351 157.5415 0081776  38.7749 321.9252 14.73548332906368
COSMOS 2251 DEB         
1 35026U 93036AGP 26116.63545534  .00000209  00000+0  54622-4 0  9991
2 35026  74.0469  64.1277 0082863 144.3717  32.0894 14.53712094901034
COSMOS 2251 DEB         
1 35028U 93036AGR 26117.15863615  .00000352  00000+0  81855-4 0  9991
2 35028  74.0401  13.9692 0082286 114.4793  36.0346 14.56695397902571
COSMOS 2251 DEB         
1 35031U 93036AGU 26113.02306671  .00000290  00000+0  10338-3 0  9999
2 35031  74.0404  17.3600 0017871  83.3165 277.0023 14.38444775671710
COSMOS 2251 DEB         
1 35032U 93036AGV 26116.75056906  .00004053  00000+0  82669-3 0  9993
2 35032  73.8484 106.9936 0068252 287.5510 250.0266 14.59837310896436
COSMOS 2251 DEB         
1 35033U 93036AGW 26117.17809144  .00002256  00000+0  56811-3 0  9994
2 35033  74.0246 281.5429 0013624 357.2766   2.8319 14.51704302678924
